0 COSMOS 1913
1 18792U 88002E   13281.51206332  .00000043  00000-0  17086-3 0  2054
2 18792 082.5971 303.8118 0014376 192.1038 323.8988 12.65595975188709
0 COSMOS 1913
1 18792U 88002E   13284.09020279  .00000053  00000-0  22872-3 0  2065
2 18792 082.5966 302.1608 0014487 186.2875 190.2156 12.65596048189037
0 COSMOS 1913
1 18792U 88002E   13286.15640284  .00000041  00000-0  16004-3 0  2076
2 18792 082.5963 300.8375 0014560 181.6683 244.0320 12.65596355189298
0 COSMOS 1913
1 18792U 88002E   13288.53834175  .00000021  00000-0  53559-4 0  2080
2 18792 082.5962 299.3118 0014641 176.3579 296.3735 12.65596698189592
0 COSMOS 1913
1 18792U 88002E   13291.13730587  .00000009  00000-0 -88206-5 0  2098
2 18792 082.5964 297.6468 0014743 170.5155 257.5543 12.65596769189924
0 COSMOS 1913
1 18792U 88002E   13293.44884824  .00000033  00000-0  12041-3 0  2108
2 18792 082.5966 296.1662 0014860 165.3992 349.1304 12.65596633190214
0 COSMOS 1913
1 18792U 88002E   13295.49621233  .00000045  00000-0  18468-3 0  2111
2 18792 082.5967 294.8549 0014943 160.8909 317.0642 12.65596567190477
